[{"OBJECT_NAME":"GPS BIIF-7  (PRN 09)","OBJECT_ID":"2014-045A","EPOCH":"2026-04-26T04:47:07.231200","MEAN_MOTION":2.00554931,"ECCENTRICITY":0.0031664,"INCLINATION":55.3199,"RA_OF_ASC_NODE":90.5347,"ARG_OF_PERICENTER":119.1386,"MEAN_ANOMALY":241.1664,"EPHEMERIS_TYPE":0,"CLASSIFICATION_TYPE":"U","NORAD_CAT_ID":40105,"ELEMENT_SET_NO":999,"REV_AT_EPOCH":8503,"BSTAR":0,"MEAN_MOTION_DOT":3.1e-7,"MEAN_MOTION_DDOT":0},{"OBJECT_NAME":"GPS BIIF-8  (PRN 03)","OBJECT_ID":"2014-068A","EPOCH":"2026-04-26T01:45:42.554016","MEAN_MOTION":2.00572934,"ECCENTRICITY":0.00652593,"INCLINATION":56.9539,"RA_OF_ASC_NODE":32.9628,"ARG_OF_PERICENTER":68.8513,"MEAN_ANOMALY":291.847,"EPHEMERIS_TYPE":0,"CLASSIFICATION_TYPE":"U","NORAD_CAT_ID":40294,"ELEMENT_SET_NO":999,"REV_AT_EPOCH":8416,"BSTAR":0,"MEAN_MOTION_DOT":-9.8e-7,"MEAN_MOTION_DDOT":0},{"OBJECT_NAME":"GPS BIIF-9  (PRN 26)","OBJECT_ID":"2015-013A","EPOCH":"2026-04-25T17:01:19.193088","MEAN_MOTION":2.00554458,"ECCENTRICITY":0.0108874,"INCLINATION":53.1744,"RA_OF_ASC_NODE":206.3479,"ARG_OF_PERICENTER":39.9788,"MEAN_ANOMALY":320.8435,"EPHEMERIS_TYPE":0,"CLASSIFICATION_TYPE":"U","NORAD_CAT_ID":40534,"ELEMENT_SET_NO":999,"REV_AT_EPOCH":8077,"BSTAR":0,"MEAN_MOTION_DOT":-3.9e-7,"MEAN_MOTION_DDOT":0},{"OBJECT_NAME":"GPS BIIF-10 (PRN 08)","OBJECT_ID":"2015-033A","EPOCH":"2026-04-25T08:53:03.993504","MEAN_MOTION":2.0055894,"ECCENTRICITY":0.01150064,"INCLINATION":54.0255,"RA_OF_ASC_NODE":269.2625,"ARG_OF_PERICENTER":29.884,"MEAN_ANOMALY":330.7367,"EPHEMERIS_TYPE":0,"CLASSIFICATION_TYPE":"U","NORAD_CAT_ID":40730,"ELEMENT_SET_NO":999,"REV_AT_EPOCH":7893,"BSTAR":0,"MEAN_MOTION_DOT":-3.9e-7,"MEAN_MOTION_DDOT":0},{"OBJECT_NAME":"GPS BIIF-11 (PRN 10)","OBJECT_ID":"2015-062A","EPOCH":"2026-04-25T22:14:20.419008","MEAN_MOTION":2.00566971,"ECCENTRICITY":0.01112501,"INCLINATION":56.9265,"RA_OF_ASC_NODE":32.8248,"ARG_OF_PERICENTER":231.5206,"MEAN_ANOMALY":127.4823,"EPHEMERIS_TYPE":0,"CLASSIFICATION_TYPE":"U","NORAD_CAT_ID":41019,"ELEMENT_SET_NO":999,"REV_AT_EPOCH":7678,"BSTAR":0,"MEAN_MOTION_DOT":-9.7e-7,"MEAN_MOTION_DDOT":0},{"OBJECT_NAME":"GPS BIIF-12 (PRN 32)","OBJECT_ID":"2016-007A","EPOCH":"2026-04-26T00:20:45.251232","MEAN_MOTION":2.0055414,"ECCENTRICITY":0.00961186,"INCLINATION":55.4924,"RA_OF_ASC_NODE":91.5265,"ARG_OF_PERICENTER":247.0858,"MEAN_ANOMALY":111.8862,"EPHEMERIS_TYPE":0,"CLASSIFICATION_TYPE":"U","NORAD_CAT_ID":41328,"ELEMENT_SET_NO":999,"REV_AT_EPOCH":7479,"BSTAR":0,"MEAN_MOTION_DOT":3.5e-7,"MEAN_MOTION_DDOT":0},{"OBJECT_NAME":"GPS BIII-1  (PRN 04)","OBJECT_ID":"2018-109A","EPOCH":"2026-04-26T09:38:00.627360","MEAN_MOTION":2.00559161,"ECCENTRICITY":0.00378986,"INCLINATION":55.6514,"RA_OF_ASC_NODE":94.2279,"ARG_OF_PERICENTER":198.8751,"MEAN_ANOMALY":333.4999,"EPHEMERIS_TYPE":0,"CLASSIFICATION_TYPE":"U","NORAD_CAT_ID":43873,"ELEMENT_SET_NO":999,"REV_AT_EPOCH":5403,"BSTAR":0,"MEAN_MOTION_DOT":3.9e-7,"MEAN_MOTION_DDOT":0},{"OBJECT_NAME":"GPS BIII-2  (PRN 18)","OBJECT_ID":"2019-056A","EPOCH":"2026-04-26T00:54:04.042656","MEAN_MOTION":2.00569079,"ECCENTRICITY":0.00595487,"INCLINATION":55.6604,"RA_OF_ASC_NODE":333.2149,"ARG_OF_PERICENTER":197.4328,"MEAN_ANOMALY":334.3759,"EPHEMERIS_TYPE":0,"CLASSIFICATION_TYPE":"U","NORAD_CAT_ID":44506,"ELEMENT_SET_NO":999,"REV_AT_EPOCH":4902,"BSTAR":0,"MEAN_MOTION_DOT":-7.9e-7,"MEAN_MOTION_DDOT":0},{"OBJECT_NAME":"GPS BIII-3  (PRN 23)","OBJECT_ID":"2020-041A","EPOCH":"2026-04-26T02:27:08.454816","MEAN_MOTION":2.00559717,"ECCENTRICITY":0.00621913,"INCLINATION":56.6381,"RA_OF_ASC_NODE":30.9643,"ARG_OF_PERICENTER":205.0511,"MEAN_ANOMALY":313.8606,"EPHEMERIS_TYPE":0,"CLASSIFICATION_TYPE":"U","NORAD_CAT_ID":45854,"ELEMENT_SET_NO":999,"REV_AT_EPOCH":4299,"BSTAR":0,"MEAN_MOTION_DOT":-1.01e-6,"MEAN_MOTION_DDOT":0},{"OBJECT_NAME":"GPS BIII-4  (PRN 14)","OBJECT_ID":"2020-078A","EPOCH":"2026-04-22T22:15:39.157056","MEAN_MOTION":2.00564823,"ECCENTRICITY":0.0070939,"INCLINATION":53.9891,"RA_OF_ASC_NODE":213.0193,"ARG_OF_PERICENTER":205.6597,"MEAN_ANOMALY":155.6852,"EPHEMERIS_TYPE":0,"CLASSIFICATION_TYPE":"U","NORAD_CAT_ID":46826,"ELEMENT_SET_NO":999,"REV_AT_EPOCH":4040,"BSTAR":0,"MEAN_MOTION_DOT":-1.7e-7,"MEAN_MOTION_DDOT":0},{"OBJECT_NAME":"GPS BIII-5  (PRN 11)","OBJECT_ID":"2021-054A","EPOCH":"2026-04-26T08:52:39.150912","MEAN_MOTION":2.0057231,"ECCENTRICITY":0.00240428,"INCLINATION":55.1971,"RA_OF_ASC_NODE":334.5423,"ARG_OF_PERICENTER":229.923,"MEAN_ANOMALY":282.5639,"EPHEMERIS_TYPE":0,"CLASSIFICATION_TYPE":"U","NORAD_CAT_ID":48859,"ELEMENT_SET_NO":999,"REV_AT_EPOCH":3571,"BSTAR":0,"MEAN_MOTION_DOT":-8.3e-7,"MEAN_MOTION_DDOT":0},{"OBJECT_NAME":"GPS BIII-6  (PRN 28)","OBJECT_ID":"2023-009A","EPOCH":"2026-04-26T03:49:32.691360","MEAN_MOTION":2.00574943,"ECCENTRICITY":0.00056152,"INCLINATION":55.1147,"RA_OF_ASC_NODE":150.5635,"ARG_OF_PERICENTER":315.2799,"MEAN_ANOMALY":82.808,"EPHEMERIS_TYPE":0,"CLASSIFICATION_TYPE":"U","NORAD_CAT_ID":55268,"ELEMENT_SET_NO":999,"REV_AT_EPOCH":2420,"BSTAR":0,"MEAN_MOTION_DOT":6.0e-7,"MEAN_MOTION_DDOT":0},{"OBJECT_NAME":"GPS BIII-7  (PRN 01)","OBJECT_ID":"2024-242A","EPOCH":"2026-04-26T05:41:38.583168","MEAN_MOTION":2.00570556,"ECCENTRICITY":0.00168326,"INCLINATION":54.8705,"RA_OF_ASC_NODE":336.2872,"ARG_OF_PERICENTER":0.5482,"MEAN_ANOMALY":176.6523,"EPHEMERIS_TYPE":0,"CLASSIFICATION_TYPE":"U","NORAD_CAT_ID":62339,"ELEMENT_SET_NO":999,"REV_AT_EPOCH":1021,"BSTAR":0,"MEAN_MOTION_DOT":-8.5e-7,"MEAN_MOTION_DDOT":0},{"OBJECT_NAME":"GPS BIII-8  (PRN 21)","OBJECT_ID":"2025-116A","EPOCH":"2026-04-23T05:49:38.568864","MEAN_MOTION":2.00549673,"ECCENTRICITY":0.00091244,"INCLINATION":55.1985,"RA_OF_ASC_NODE":33.3417,"ARG_OF_PERICENTER":335.2523,"MEAN_ANOMALY":22.0569,"EPHEMERIS_TYPE":0,"CLASSIFICATION_TYPE":"U","NORAD_CAT_ID":64202,"ELEMENT_SET_NO":999,"REV_AT_EPOCH":676,"BSTAR":0,"MEAN_MOTION_DOT":-8.1e-7,"MEAN_MOTION_DDOT":0},{"OBJECT_NAME":"GPS BIII-9  (PRN 20)","OBJECT_ID":"2026-017A","EPOCH":"2026-04-20T08:44:44.906496","MEAN_MOTION":2.00572232,"ECCENTRICITY":0.00246117,"INCLINATION":55.0497,"RA_OF_ASC_NODE":91.0746,"ARG_OF_PERICENTER":254.1378,"MEAN_ANOMALY":105.5744,"EPHEMERIS_TYPE":0,"CLASSIFICATION_TYPE":"U","NORAD_CAT_ID":67588,"ELEMENT_SET_NO":999,"REV_AT_EPOCH":43045,"BSTAR":0,"MEAN_MOTION_DOT":2.3e-7,"MEAN_MOTION_DDOT":0},{"OBJECT_NAME":"GPS BIII-10","OBJECT_ID":"2026-087A","EPOCH":"2026-04-22T08:11:45.645792","MEAN_MOTION":4.03281331,"ECCENTRICITY":0.59420752,"INCLINATION":54.9968,"RA_OF_ASC_NODE":210.8716,"ARG_OF_PERICENTER":270.2176,"MEAN_ANOMALY":26.1146,"EPHEMERIS_TYPE":0,"CLASSIFICATION_TYPE":"U","NORAD_CAT_ID":68791,"ELEMENT_SET_NO":999,"REV_AT_EPOCH":5,"BSTAR":0.0019778413,"MEAN_MOTION_DOT":2.417e-5,"MEAN_MOTION_DDOT":0}]
